[
    {
        "Altitude(m)": 559716.1175751695,
        "Argument of Periapsis(deg)": 0.006622991110713501,
        "Eccentricity": 0.0,
        "Inclination(deg)": 53.0,
        "Latitude(deg)": -22.420393546563282,
        "Longitude(deg)": 82.23848792778445,
        "Mean Anomaly(deg)": -151.72660713242246,
        "RAAN(deg)": 344.99014336852804,
        "Satellite Name": "Starlink Shell 1 1530",
        "Satellite Number": 1530,
        "Semi-Major Axis(m)": 6931778.249405717,
        "Time(s)": 190
    },
    {
        "Altitude(m)": 559880.7469175183,
        "Argument of Periapsis(deg)": 0.0069715695902247375,
        "Eccentricity": 0.0,
        "Inclination(deg)": 53.0,
        "Latitude(deg)": -22.897728309073468,
        "Longitude(deg)": 82.63847673071385,
        "Mean Anomaly(deg)": -151.09977592886574,
        "RAAN(deg)": 344.9896245984506,
        "Satellite Name": "Starlink Shell 1 1530",
        "Satellite Number": 1530,
        "Semi-Major Axis(m)": 6931778.249405717,
        "Time(s)": 200
    },
    {
        "Altitude(m)": 560046.4973740826,
        "Argument of Periapsis(deg)": 0.007320148069735974,
        "Eccentricity": 0.0,
        "Inclination(deg)": 53.0,
        "Latitude(deg)": -23.373786604792294,
        "Longitude(deg)": 83.04154399596685,
        "Mean Anomaly(deg)": -150.47294472530896,
        "RAAN(deg)": 344.9891058283731,
        "Satellite Name": "Starlink Shell 1 1530",
        "Satellite Number": 1530,
        "Semi-Major Axis(m)": 6931778.249405717,
        "Time(s)": 210
    },
    {
        "Altitude(m)": 560213.3097270943,
        "Argument of Periapsis(deg)": 0.007668726549247212,
        "Eccentricity": 0.0,
        "Inclination(deg)": 53.0,
        "Latitude(deg)": -23.848530706710566,
        "Longitude(deg)": 83.44777513751254,
        "Mean Anomaly(deg)": -149.84611352175227,
        "RAAN(deg)": 344.9885870582956,
        "Satellite Name": "Starlink Shell 1 1530",
        "Satellite Number": 1530,
        "Semi-Major Axis(m)": 6931778.249405717,
        "Time(s)": 220
    },
    {
        "Altitude(m)": 560381.1241362581,
        "Argument of Periapsis(deg)": 0.00801730502875845,
        "Eccentricity": 0.0,
        "Inclination(deg)": 53.0,
        "Latitude(deg)": -24.321922138711624,
        "Longitude(deg)": 83.85725676088472,
        "Mean Anomaly(deg)": -149.21928231819555,
        "RAAN(deg)": 344.9880682882182,
        "Satellite Name": "Starlink Shell 1 1530",
        "Satellite Number": 1530,
        "Semi-Major Axis(m)": 6931778.249405717,
        "Time(s)": 230
    },
    {
        "Altitude(m)": 560549.8801655527,
        "Argument of Periapsis(deg)": 0.008365883508269684,
        "Eccentricity": 0.0,
        "Inclination(deg)": 53.0,
        "Latitude(deg)": -24.793921650808226,
        "Longitude(deg)": 84.27007718579458,
        "Mean Anomaly(deg)": -148.5924511146389,
        "RAAN(deg)": 344.98754951814067,
        "Satellite Name": "Starlink Shell 1 1530",
        "Satellite Number": 1530,
        "Semi-Major Axis(m)": 6931778.249405717,
        "Time(s)": 240
    },
    {
        "Altitude(m)": 560719.5168103048,
        "Argument of Periapsis(deg)": 0.008714461987780921,
        "Eccentricity": 0.0,
        "Inclination(deg)": 53.0,
        "Latitude(deg)": -25.264489193862836,
        "Longitude(deg)": 84.68632545462246,
        "Mean Anomaly(deg)": -147.96561991108211,
        "RAAN(deg)": 344.9870307480632,
        "Satellite Name": "Starlink Shell 1 1530",
        "Satellite Number": 1530,
        "Semi-Major Axis(m)": 6931778.249405717,
        "Time(s)": 250
    },
    {
        "Altitude(m)": 560889.9725245276,
        "Argument of Periapsis(deg)": 0.009063040467292158,
        "Eccentricity": 0.0,
        "Inclination(deg)": 53.0,
        "Latitude(deg)": -25.733583893787305,
        "Longitude(deg)": 85.10609185239868,
        "Mean Anomaly(deg)": -147.3387887075254,
        "RAAN(deg)": 344.98651197798574,
        "Satellite Name": "Starlink Shell 1 1530",
        "Satellite Number": 1530,
        "Semi-Major Axis(m)": 6931778.249405717,
        "Time(s)": 260
    },
    {
        "Altitude(m)": 561061.1852485213,
        "Argument of Periapsis(deg)": 0.009411618946803396,
        "Eccentricity": 0.0,
        "Inclination(deg)": 53.0,
        "Latitude(deg)": -26.20116402522475,
        "Longitude(deg)": 85.52946842525739,
        "Mean Anomaly(deg)": -146.7119575039687,
        "RAAN(deg)": 344.9859932079083,
        "Satellite Name": "Starlink Shell 1 1530",
        "Satellite Number": 1530,
        "Semi-Major Axis(m)": 6931778.249405717,
        "Time(s)": 270
    },
    {
        "Altitude(m)": 561233.0924366742,
        "Argument of Periapsis(deg)": 0.009760197426314633,
        "Eccentricity": 0.0,
        "Inclination(deg)": 53.0,
        "Latitude(deg)": -26.667186984714828,
        "Longitude(deg)": 85.95654798433773,
        "Mean Anomaly(deg)": -146.08512630041201,
        "RAAN(deg)": 344.98547443783076,
        "Satellite Name": "Starlink Shell 1 1530",
        "Satellite Number": 1530,
        "Semi-Major Axis(m)": 6931778.249405717,
        "Time(s)": 280
    },
    {
        "Altitude(m)": 561405.6310855402,
        "Argument of Periapsis(deg)": 0.01010877590582587,
        "Eccentricity": 0.0,
        "Inclination(deg)": 53.0,
        "Latitude(deg)": -27.131609263346288,
        "Longitude(deg)": 86.38742462070864,
        "Mean Anomaly(deg)": -145.4582950968553,
        "RAAN(deg)": 344.9849556677533,
        "Satellite Name": "Starlink Shell 1 1530",
        "Satellite Number": 1530,
        "Semi-Major Axis(m)": 6931778.249405717,
        "Time(s)": 290
    },
    {
        "Altitude(m)": 561578.7377620909,
        "Argument of Periapsis(deg)": 0.010457354385337106,
        "Eccentricity": 0.0,
        "Inclination(deg)": 53.0,
        "Latitude(deg)": -27.594386418903554,
        "Longitude(deg)": 86.82219421826801,
        "Mean Anomaly(deg)": -144.83146389329852,
        "RAAN(deg)": 344.98443689767583,
        "Satellite Name": "Starlink Shell 1 1530",
        "Satellite Number": 1530,
        "Semi-Major Axis(m)": 6931778.249405717,
        "Time(s)": 300
    },
    {
        "Altitude(m)": 561752.3486321671,
        "Argument of Periapsis(deg)": 0.010805932864848343,
        "Eccentricity": 0.0,
        "Inclination(deg)": 53.0,
        "Latitude(deg)": -28.055473047516426,
        "Longitude(deg)": 87.2609534515544,
        "Mean Anomaly(deg)": -144.20463268974186,
        "RAAN(deg)": 344.9839181275983,
        "Satellite Name": "Starlink Shell 1 1530",
        "Satellite Number": 1530,
        "Semi-Major Axis(m)": 6931778.249405717,
        "Time(s)": 310
    },
    {
        "Altitude(m)": 561926.3994891258,
        "Argument of Periapsis(deg)": 0.01115451134435958,
        "Eccentricity": 0.0,
        "Inclination(deg)": 53.0,
        "Latitude(deg)": -28.51482275482417,
        "Longitude(deg)": 87.70380029400951,
        "Mean Anomaly(deg)": -143.5778014861851,
        "RAAN(deg)": 344.9833993575209,
        "Satellite Name": "Starlink Shell 1 1530",
        "Satellite Number": 1530,
        "Semi-Major Axis(m)": 6931778.249405717,
        "Time(s)": 320
    },
    {
        "Altitude(m)": 562100.8257826393,
        "Argument of Periapsis(deg)": 0.011503089823870818,
        "Eccentricity": 0.0,
        "Inclination(deg)": 53.0,
        "Latitude(deg)": -28.972388126666804,
        "Longitude(deg)": 88.15083452360167,
        "Mean Anomaly(deg)": -142.95097028262845,
        "RAAN(deg)": 344.98288058744345,
        "Satellite Name": "Starlink Shell 1 1530",
        "Satellite Number": 1530,
        "Semi-Major Axis(m)": 6931778.249405717,
        "Time(s)": 330
    },
    {
        "Altitude(m)": 562275.5626476426,
        "Argument of Periapsis(deg)": 0.011851668303382053,
        "Eccentricity": 0.0,
        "Inclination(deg)": 53.0,
        "Latitude(deg)": -29.428120699323735,
        "Longitude(deg)": 88.6021567127071,
        "Mean Anomaly(deg)": -142.32413907907167,
        "RAAN(deg)": 344.9823618173659,
        "Satellite Name": "Starlink Shell 1 1530",
        "Satellite Number": 1530,
        "Semi-Major Axis(m)": 6931778.249405717,
        "Time(s)": 340
    },
    {
        "Altitude(m)": 562450.5449334584,
        "Argument of Periapsis(deg)": 0.012200246782893292,
        "Eccentricity": 0.0,
        "Inclination(deg)": 53.0,
        "Latitude(deg)": -29.881970929317216,
        "Longitude(deg)": 89.05786872774301,
        "Mean Anomaly(deg)": -141.69730787551495,
        "RAAN(deg)": 344.9818430472885,
        "Satellite Name": "Starlink Shell 1 1530",
        "Satellite Number": 1530,
        "Semi-Major Axis(m)": 6931778.249405717,
        "Time(s)": 350
    },
    {
        "Altitude(m)": 562625.7072329866,
        "Argument of Periapsis(deg)": 0.012548825262404526,
        "Eccentricity": 0.0,
        "Inclination(deg)": 53.0,
        "Latitude(deg)": -30.333888162808115,
        "Longitude(deg)": 89.518074225418,
        "Mean Anomaly(deg)": -141.0704766719583,
        "RAAN(deg)": 344.981324277211,
        "Satellite Name": "Starlink Shell 1 1530",
        "Satellite Number": 1530,
        "Semi-Major Axis(m)": 6931778.249405717,
        "Time(s)": 360
    },
    {
        "Altitude(m)": 562800.9839120506,
        "Argument of Periapsis(deg)": 0.012897403741915765,
        "Eccentricity": 0.0,
        "Inclination(deg)": 53.0,
        "Latitude(deg)": -30.78382060461081,
        "Longitude(deg)": 89.98287763244755,
        "Mean Anomaly(deg)": -140.4436454684016,
        "RAAN(deg)": 344.98080550713354,
        "Satellite Name": "Starlink Shell 1 1530",
        "Satellite Number": 1530,
        "Semi-Major Axis(m)": 6931778.249405717,
        "Time(s)": 370
    }
]